[{"OBJECT_NAME":"STARLINK-34340","OBJECT_ID":"2025-112T","EPOCH":"2026-03-09T17:46:52.226400","MEAN_MOTION":15.05647906,"ECCENTRICITY":8.495e-5,"INCLINATION":97.6025,"RA_OF_ASC_NODE":121.5373,"ARG_OF_PERICENTER":142.7286,"MEAN_ANOMALY":217.4,"EPHEMERIS_TYPE":0,"CLASSIFICATION_TYPE":"U","NORAD_CAT_ID":64163,"ELEMENT_SET_NO":999,"REV_AT_EPOCH":4331,"BSTAR":6.4740904e-5,"MEAN_MOTION_DOT":8.73e-6,"MEAN_MOTION_DDOT":0},{"OBJECT_NAME":"ARIANE 42P R\/B","OBJECT_ID":"1990-100C","EPOCH":"2026-03-09T12:32:42.482688","MEAN_MOTION":9.99442325,"ECCENTRICITY":0.28458045,"INCLINATION":7.105,"RA_OF_ASC_NODE":222.2711,"ARG_OF_PERICENTER":301.2034,"MEAN_ANOMALY":33.9685,"EPHEMERIS_TYPE":0,"CLASSIFICATION_TYPE":"U","NORAD_CAT_ID":20947,"ELEMENT_SET_NO":999,"REV_AT_EPOCH":38025,"BSTAR":0.000949907,"MEAN_MOTION_DOT":0.03043985,"MEAN_MOTION_DDOT":-4.682903e-6}]
